{"type": "FeatureCollection", "features": [{"type": "Feature", "geometry": {"type": "Polygon", "coordinates": [[[-67.135, -9.6759], [-67.3255, -9.5925], [-67.326, -9.5923], [-67.5169, -9.5609], [-67.9768, -9.3527], [-68.2199, -9.2428], [-68.6472, -9.0494], [-68.9213, -8.8143], [-69.213, -8.5644], [-69.4443, -8.3665], [-69.8017, -8.0611], [-70.055, -7.8451], [-70.5152, -7.7924], [-71.0885, -7.7263], [-71.3817, -7.6923], [-71.9454, -7.6268], [-72.1695, -7.6006], [-72.5848, -7.552], [-72.9003, -7.4377], [-73.7382, -7.1347], [-73.8016, -7.1118], [-73.6989, -7.2957], [-73.8765, -7.3823], [-73.9671, -7.3598], [-73.9193, -7.4653], [-73.9833, -7.5662], [-73.8217, -7.7175], [-73.6935, -7.7709], [-73.704, -7.8726], [-73.7672, -7.8609], [-73.7288, -7.9691], [-73.6322, -8.059], [-73.537, -8.3455], [-73.3321, -8.4754], [-73.344, -8.6021], [-73.128, -8.7712], [-73.0562, -8.9069], [-72.9948, -8.9198], [-72.9402, -9.069], [-73.1008, -9.3042], [-73.2119, -9.4117], [-72.7197, -9.4117], [-72.518, -9.4916], [-72.3404, -9.5087], [-72.2529, -9.6228], [-72.2709, -9.7448], [-72.1529, -9.7968], [-72.1805, -10], [-71.3774, -10], [-71.2108, -9.9664], [-71.0777, -9.8277], [-70.9977, -9.8184], [-70.8688, -9.6646], [-70.7996, -9.6425], [-70.5698, -9.4322], [-70.5056, -9.4222], [-70.598, -9.6065], [-70.5247, -9.7153], [-70.6206, -9.8323], [-70.6206, -10.0793], [-70.6205, -10.425], [-70.6209, -10.7055], [-70.621, -10.9996], [-70.5301, -10.9348], [-70.4247, -11.0378], [-70.3022, -11.0688], [-70.161, -11.0426], [-69.9339, -10.9212], [-69.7357, -10.9745], [-69.4235, -10.9266], [-69.2326, -10.94], [-68.9121, -11.0217], [-68.7486, -11.0187], [-68.7161, -11.1456], [-68.543, -11.1114], [-68.3882, -11.0406], [-68.2394, -10.9578], [-68.0022, -10.6484], [-67.8641, -10.6408], [-67.7046, -10.7004], [-67.5673, -10.5095], [-67.3108, -10.3774], [-67.316, -10.3187], [-67.1778, -10.3394], [-67.0023, -10.2297], [-66.8986, -10.1114], [-66.6269, -9.898], [-66.8103, -9.818], [-67.135, -9.6759]]]}, "properties": {"codarea": "12"}}]}